[{"OBJECT_NAME":"STARLINK-35682","OBJECT_ID":"2025-262M","EPOCH":"2026-03-08T23:39:11.976192","MEAN_MOTION":15.27578046,"ECCENTRICITY":0.00016081,"INCLINATION":43.0003,"RA_OF_ASC_NODE":300.5887,"ARG_OF_PERICENTER":277.903,"MEAN_ANOMALY":82.1639,"EPHEMERIS_TYPE":0,"CLASSIFICATION_TYPE":"U","NORAD_CAT_ID":66467,"ELEMENT_SET_NO":999,"REV_AT_EPOCH":1879,"BSTAR":0.001003905,"MEAN_MOTION_DOT":0.00027465,"MEAN_MOTION_DDOT":0},{"OBJECT_NAME":"COSMOS 546","OBJECT_ID":"1973-005A","EPOCH":"2026-03-09T21:40:39.247392","MEAN_MOTION":15.29707303,"ECCENTRICITY":0.00147738,"INCLINATION":50.6327,"RA_OF_ASC_NODE":289.914,"ARG_OF_PERICENTER":261.1516,"MEAN_ANOMALY":98.7778,"EPHEMERIS_TYPE":0,"CLASSIFICATION_TYPE":"U","NORAD_CAT_ID":6350,"ELEMENT_SET_NO":999,"REV_AT_EPOCH":92802,"BSTAR":9.142057e-5,"MEAN_MOTION_DOT":2.316e-5,"MEAN_MOTION_DDOT":0}]
